UNKNOWN                 
1 81845U          23257.06157490  .00003419  00000+0  44510-3 0  9990
2 81845  97.7277 105.2798 0101715 108.1090  43.7532 14.77651477528023
UNKNOWN                 
1 81864U          23256.07997677  .00005254  00000+0  20739-2 0  9995
2 81864  65.6753 180.2729 0783902   7.2538 353.9087 13.27725716441559
UNKNOWN                 
1 81865U 87062    23258.56512360  .00001608  00000+0  14053-2 0  9998
2 81865  82.8052 298.9826 0069598 164.8926 348.0017 13.84085113495063
UNKNOWN                 
1 81872U          23258.56641532  .00553433  51950-4  82750-2 0  9999
2 81872  61.9237 311.7745 0613468  90.9552 276.1815 14.52315026253630
UNKNOWN                 
1 81873U          23255.91098313  .00005432  00000+0  28532-2 0  9993
2 81873  99.0781 309.7906 0068416 246.8654 112.5298 14.13336739453142
UNKNOWN                 
1 81893U 70025    23257.75862490  .00000625  00000+0  72032-3 0  9992
2 81893  99.9617 190.8701 0019082 212.0716 147.9271 13.73630188491372
UNKNOWN                 
1 81899U          23258.27485476  .00002221  00000+0  54335-2 0  9996
2 81899 102.4280 203.0219 0176380 138.6672 222.7936 13.17375177470957
UNKNOWN                 
1 81902U          23257.51536644  .00055653  00000+0  45041-2 0  9992
2 81902  81.6126 332.7906 0179980 239.1443 119.1961 14.87636480518791
UNKNOWN                 
1 81921U          23255.95957023  .00003688  00000+0  15714-2 0  9992
2 81921  65.7063 110.9639 0866529 103.8953 265.9914 13.09616564920709
UNKNOWN                 
1 81946U 87079    23258.51760626  .00000155  00000+0  69230-3 0  9995
2 81946  66.4202 287.6399 0666964  26.9716  41.8358 12.42124569446113
UNKNOWN                 
1 81947U          23254.43743637  .00006666  00000+0  68934-3 0  9998
2 81947  66.0799 278.9388 0449489 282.3429  72.7710 14.37246905512048
UNKNOWN                 
1 81964U          23258.63087352  .00000309  00000+0  28644-3 0  9990
2 81964  66.5842 131.5032 0043945 267.2967  92.3082 13.94854895499765
UNKNOWN                 
1 81969U          23258.11405839  .00006121  00000+0  61834-3 0  9998
2 81969  86.6712 145.0969 0006772 235.2478 124.8112 14.90878357317307
UNKNOWN                 
1 81995U          23258.49781189  .00003293  00000+0  73573-3 0  9993
2 81995  65.7516  80.5369 0576134 342.4656  15.7222 13.88027570489866
UNKNOWN                 
1 82039U          23257.19434857  .00032821  00000+0  49698-2 0  9995
2 82039  99.0524 342.7225 0029107  38.6680 321.6602 14.73796394437645
UNKNOWN                 
1 82043U          23258.37298142  .00002735  00000+0  84665-3 0  9991
2 82043  97.9163 111.5954 0254944  14.8598 345.9899 14.24912053456859
UNKNOWN                 
1 82044U          23255.18738770  .00001576  00000+0  16587-2 0  9993
2 82044  99.9058 344.7097 0066164 240.7569 118.6952 13.75561984448760
