[{"OBJECT_NAME":"UNKNOWN","OBJECT_ID":"","EPOCH":"2023-09-14T01:28:40.071360","MEAN_MOTION":14.77651477,"ECCENTRICITY":0.0101715,"INCLINATION":97.7277,"RA_OF_ASC_NODE":105.2798,"ARG_OF_PERICENTER":108.109,"MEAN_ANOMALY":43.7532,"EPHEMERIS_TYPE":0,"CLASSIFICATION_TYPE":"U","NORAD_CAT_ID":81845,"ELEMENT_SET_NO":999,"REV_AT_EPOCH":52802,"BSTAR":0.0004451,"MEAN_MOTION_DOT":3.419e-5,"MEAN_MOTION_DDOT":0},{"OBJECT_NAME":"UNKNOWN","OBJECT_ID":"","EPOCH":"2023-09-13T01:55:09.992928","MEAN_MOTION":13.27725716,"ECCENTRICITY":0.0783902,"INCLINATION":65.6753,"RA_OF_ASC_NODE":180.2729,"ARG_OF_PERICENTER":7.2538,"MEAN_ANOMALY":353.9087,"EPHEMERIS_TYPE":0,"CLASSIFICATION_TYPE":"U","NORAD_CAT_ID":81864,"ELEMENT_SET_NO":999,"REV_AT_EPOCH":44155,"BSTAR":0.0020739,"MEAN_MOTION_DOT":5.254e-5,"MEAN_MOTION_DDOT":0},{"OBJECT_NAME":"UNKNOWN","OBJECT_ID":"1987-062","EPOCH":"2023-09-15T13:33:46.679040","MEAN_MOTION":13.84085113,"ECCENTRICITY":0.0069598,"INCLINATION":82.8052,"RA_OF_ASC_NODE":298.9826,"ARG_OF_PERICENTER":164.8926,"MEAN_ANOMALY":348.0017,"EPHEMERIS_TYPE":0,"CLASSIFICATION_TYPE":"U","NORAD_CAT_ID":81865,"ELEMENT_SET_NO":999,"REV_AT_EPOCH":49506,"BSTAR":0.0014053,"MEAN_MOTION_DOT":1.608e-5,"MEAN_MOTION_DDOT":0},{"OBJECT_NAME":"UNKNOWN","OBJECT_ID":"","EPOCH":"2023-09-15T13:35:38.283648","MEAN_MOTION":14.52315026,"ECCENTRICITY":0.0613468,"INCLINATION":61.9237,"RA_OF_ASC_NODE":311.7745,"ARG_OF_PERICENTER":90.9552,"MEAN_ANOMALY":276.1815,"EPHEMERIS_TYPE":0,"CLASSIFICATION_TYPE":"U","NORAD_CAT_ID":81872,"ELEMENT_SET_NO":999,"REV_AT_EPOCH":25363,"BSTAR":0.008275,"MEAN_MOTION_DOT":0.00553433,"MEAN_MOTION_DDOT":5.195e-5},{"OBJECT_NAME":"UNKNOWN","OBJECT_ID":"","EPOCH":"2023-09-12T21:51:48.942432","MEAN_MOTION":14.13336739,"ECCENTRICITY":0.0068416,"INCLINATION":99.0781,"RA_OF_ASC_NODE":309.7906,"ARG_OF_PERICENTER":246.8654,"MEAN_ANOMALY":112.5298,"EPHEMERIS_TYPE":0,"CLASSIFICATION_TYPE":"U","NORAD_CAT_ID":81873,"ELEMENT_SET_NO":999,"REV_AT_EPOCH":45314,"BSTAR":0.0028532,"MEAN_MOTION_DOT":5.432e-5,"MEAN_MOTION_DDOT":0},{"OBJECT_NAME":"UNKNOWN","OBJECT_ID":"1970-025","EPOCH":"2023-09-14T18:12:25.191360","MEAN_MOTION":13.73630188,"ECCENTRICITY":0.0019082,"INCLINATION":99.9617,"RA_OF_ASC_NODE":190.8701,"ARG_OF_PERICENTER":212.0716,"MEAN_ANOMALY":147.9271,"EPHEMERIS_TYPE":0,"CLASSIFICATION_TYPE":"U","NORAD_CAT_ID":81893,"ELEMENT_SET_NO":999,"REV_AT_EPOCH":49137,"BSTAR":0.00072032,"MEAN_MOTION_DOT":6.25e-6,"MEAN_MOTION_DDOT":0},{"OBJECT_NAME":"UNKNOWN","OBJECT_ID":"","EPOCH":"2023-09-15T06:35:47.451264","MEAN_MOTION":13.17375177,"ECCENTRICITY":0.017638,"INCLINATION":102.428,"RA_OF_ASC_NODE":203.0219,"ARG_OF_PERICENTER":138.6672,"MEAN_ANOMALY":222.7936,"EPHEMERIS_TYPE":0,"CLASSIFICATION_TYPE":"U","NORAD_CAT_ID":81899,"ELEMENT_SET_NO":999,"REV_AT_EPOCH":47095,"BSTAR":0.0054335,"MEAN_MOTION_DOT":2.221e-5,"MEAN_MOTION_DDOT":0},{"OBJECT_NAME":"UNKNOWN","OBJECT_ID":"","EPOCH":"2023-09-14T12:22:07.660416","MEAN_MOTION":14.8763648,"ECCENTRICITY":0.017998,"INCLINATION":81.6126,"RA_OF_ASC_NODE":332.7906,"ARG_OF_PERICENTER":239.1443,"MEAN_ANOMALY":119.1961,"EPHEMERIS_TYPE":0,"CLASSIFICATION_TYPE":"U","NORAD_CAT_ID":81902,"ELEMENT_SET_NO":999,"REV_AT_EPOCH":51879,"BSTAR":0.0045041,"MEAN_MOTION_DOT":0.00055653,"MEAN_MOTION_DDOT":0},{"OBJECT_NAME":"UNKNOWN","OBJECT_ID":"","EPOCH":"2023-09-12T23:01:46.867872","MEAN_MOTION":13.09616564,"ECCENTRICITY":0.0866529,"INCLINATION":65.7063,"RA_OF_ASC_NODE":110.9639,"ARG_OF_PERICENTER":103.8953,"MEAN_ANOMALY":265.9914,"EPHEMERIS_TYPE":0,"CLASSIFICATION_TYPE":"U","NORAD_CAT_ID":81921,"ELEMENT_SET_NO":999,"REV_AT_EPOCH":92070,"BSTAR":0.0015714,"MEAN_MOTION_DOT":3.688e-5,"MEAN_MOTION_DDOT":0},{"OBJECT_NAME":"UNKNOWN","OBJECT_ID":"1987-079","EPOCH":"2023-09-15T12:25:21.180864","MEAN_MOTION":12.42124569,"ECCENTRICITY":0.0666964,"INCLINATION":66.4202,"RA_OF_ASC_NODE":287.6399,"ARG_OF_PERICENTER":26.9716,"MEAN_ANOMALY":41.8358,"EPHEMERIS_TYPE":0,"CLASSIFICATION_TYPE":"U","NORAD_CAT_ID":81946,"ELEMENT_SET_NO":999,"REV_AT_EPOCH":44611,"BSTAR":0.0006923,"MEAN_MOTION_DOT":1.55e-6,"MEAN_MOTION_DDOT":0},{"OBJECT_NAME":"UNKNOWN","OBJECT_ID":"","EPOCH":"2023-09-11T10:29:54.502368","MEAN_MOTION":14.37246905,"ECCENTRICITY":0.0449489,"INCLINATION":66.0799,"RA_OF_ASC_NODE":278.9388,"ARG_OF_PERICENTER":282.3429,"MEAN_ANOMALY":72.771,"EPHEMERIS_TYPE":0,"CLASSIFICATION_TYPE":"U","NORAD_CAT_ID":81947,"ELEMENT_SET_NO":999,"REV_AT_EPOCH":51204,"BSTAR":0.00068934,"MEAN_MOTION_DOT":6.666e-5,"MEAN_MOTION_DDOT":0},{"OBJECT_NAME":"UNKNOWN","OBJECT_ID":"","EPOCH":"2023-09-15T15:08:27.472128","MEAN_MOTION":13.94854895,"ECCENTRICITY":0.0043945,"INCLINATION":66.5842,"RA_OF_ASC_NODE":131.5032,"ARG_OF_PERICENTER":267.2967,"MEAN_ANOMALY":92.3082,"EPHEMERIS_TYPE":0,"CLASSIFICATION_TYPE":"U","NORAD_CAT_ID":81964,"ELEMENT_SET_NO":999,"REV_AT_EPOCH":49976,"BSTAR":0.00028644,"MEAN_MOTION_DOT":3.09e-6,"MEAN_MOTION_DDOT":0},{"OBJECT_NAME":"UNKNOWN","OBJECT_ID":"","EPOCH":"2023-09-15T02:44:14.644896","MEAN_MOTION":14.90878357,"ECCENTRICITY":0.0006772,"INCLINATION":86.6712,"RA_OF_ASC_NODE":145.0969,"ARG_OF_PERICENTER":235.2478,"MEAN_ANOMALY":124.8112,"EPHEMERIS_TYPE":0,"CLASSIFICATION_TYPE":"U","NORAD_CAT_ID":81969,"ELEMENT_SET_NO":999,"REV_AT_EPOCH":31730,"BSTAR":0.00061834,"MEAN_MOTION_DOT":6.121e-5,"MEAN_MOTION_DDOT":0},{"OBJECT_NAME":"UNKNOWN","OBJECT_ID":"","EPOCH":"2023-09-15T11:56:50.947296","MEAN_MOTION":13.8802757,"ECCENTRICITY":0.0576134,"INCLINATION":65.7516,"RA_OF_ASC_NODE":80.5369,"ARG_OF_PERICENTER":342.4656,"MEAN_ANOMALY":15.7222,"EPHEMERIS_TYPE":0,"CLASSIFICATION_TYPE":"U","NORAD_CAT_ID":81995,"ELEMENT_SET_NO":999,"REV_AT_EPOCH":48986,"BSTAR":0.00073573,"MEAN_MOTION_DOT":3.293e-5,"MEAN_MOTION_DDOT":0},{"OBJECT_NAME":"UNKNOWN","OBJECT_ID":"","EPOCH":"2023-09-14T04:39:51.716448","MEAN_MOTION":14.73796394,"ECCENTRICITY":0.0029107,"INCLINATION":99.0524,"RA_OF_ASC_NODE":342.7225,"ARG_OF_PERICENTER":38.668,"MEAN_ANOMALY":321.6602,"EPHEMERIS_TYPE":0,"CLASSIFICATION_TYPE":"U","NORAD_CAT_ID":82039,"ELEMENT_SET_NO":999,"REV_AT_EPOCH":43764,"BSTAR":0.0049698,"MEAN_MOTION_DOT":0.00032821,"MEAN_MOTION_DDOT":0},{"OBJECT_NAME":"UNKNOWN","OBJECT_ID":"","EPOCH":"2023-09-15T08:57:05.594688","MEAN_MOTION":14.24912053,"ECCENTRICITY":0.0254944,"INCLINATION":97.9163,"RA_OF_ASC_NODE":111.5954,"ARG_OF_PERICENTER":14.8598,"MEAN_ANOMALY":345.9899,"EPHEMERIS_TYPE":0,"CLASSIFICATION_TYPE":"U","NORAD_CAT_ID":82043,"ELEMENT_SET_NO":999,"REV_AT_EPOCH":45685,"BSTAR":0.00084665,"MEAN_MOTION_DOT":2.735e-5,"MEAN_MOTION_DDOT":0},{"OBJECT_NAME":"UNKNOWN","OBJECT_ID":"","EPOCH":"2023-09-12T04:29:50.297280","MEAN_MOTION":13.75561984,"ECCENTRICITY":0.0066164,"INCLINATION":99.9058,"RA_OF_ASC_NODE":344.7097,"ARG_OF_PERICENTER":240.7569,"MEAN_ANOMALY":118.6952,"EPHEMERIS_TYPE":0,"CLASSIFICATION_TYPE":"U","NORAD_CAT_ID":82044,"ELEMENT_SET_NO":999,"REV_AT_EPOCH":44876,"BSTAR":0.0016587,"MEAN_MOTION_DOT":1.576e-5,"MEAN_MOTION_DDOT":0}]
